NORAD_CAT_ID,OBJECT_NAME,OBJECT_TYPE,EPOCH,MEAN_MOTION,ECCENTRICITY,INCLINATION,RA_OF_ASC_NODE,ARG_OF_PERICENTER,MEAN_ANOMALY,BSTAR,MEAN_MOTION_DOT,MEAN_MOTION_DDOT,TLE_LINE0,TLE_LINE1,TLE_LINE2,SEMIMAJOR_AXIS,PERIOD,APOGEE,PERIGEE,DECAYED
52110.0,STARLINK-3687,PAYLOAD,2022-12-12 07:37:02,15.08841223,0.0002192,53.219,351.4735,31.6541,328.4583,3.2879e-05,2.35e-06,0.0,0 STARLINK-3687,1 52110U 22029Y   22346.31738921  .00000235  00000-0  32879-4 0  9998,2 52110  53.2190 351.4735 0002192  31.6541 328.4583 15.08841223 42130,6917.877,95.437,541.258,538.225,0.0
52110.0,STARLINK-3687,PAYLOAD,2022-12-13 01:06:17,15.08832478,0.0002503,53.2198,348.2073,30.9769,329.1371,1.0921e-05,-1.15e-06,0.0,0 STARLINK-3687,1 52110U 22029Y   22347.04603853 -.00000115  00000-0  10921-4 0  9996,2 52110  53.2198 348.2073 0002503  30.9769 329.1371 15.08832478 42244,6917.903,95.438,541.5,538.0369999999998,0.0
52110.0,STARLINK-3687,PAYLOAD,2022-12-13 07:27:50,15.08829543,0.0002362,53.2201,347.0187,35.1325,324.9823,7.0317e-05,8.31e-06,0.0,0 STARLINK-3687,1 52110U 22029Y   22347.31100028  .00000831  00000-0  70317-4 0  9991,2 52110  53.2201 347.0187 0002362  35.1325 324.9823 15.08829543 42288,6917.9119999999975,95.438,541.411,538.143,0.0
52110.0,STARLINK-3687,PAYLOAD,2022-12-13 17:00:09,15.08833371,0.0002324,53.2198,345.2345,32.1839,327.9295,1.7437999999999998e-05,-1.1e-07,0.0,0 STARLINK-3687,1 52110U 22029Y   22347.70844080 -.00000011  00000-0  17438-4 0  9993,2 52110  53.2198 345.2345 0002324  32.1839 327.9295 15.08833371 42341,6917.901,95.438,541.373,538.158,0.0
52110.0,STARLINK-3687,PAYLOAD,2022-12-14 07:18:37,15.08838611,0.0002619,53.2185,342.556,26.911,333.2018,2.554300000000001e-05,1.18e-06,0.0,0 STARLINK-3687,1 52110U 22029Y   22348.30459734  .00000118  00000-0  25543-4 0  9991,2 52110  53.2185 342.5560 0002619  26.9110 333.2018 15.08838611 42431,6917.885,95.438,541.561,537.938,0.0
52110.0,STARLINK-3687,PAYLOAD,2022-12-14 23:12:29,15.08836627,0.0002631,53.218,339.5822,25.1692,334.9428,-4.1833e-05,-9.54e-06,0.0,0 STARLINK-3687,1 52110U 22029Y   22348.96700393 -.00000954  00000-0 -41833-4 0  9993,2 52110  53.2180 339.5822 0002631  25.1692 334.9428 15.08836627 42532,6917.891,95.438,541.576,537.936,0.0
52110.0,STARLINK-3687,PAYLOAD,2022-12-15 08:44:47,15.08841237,0.0002696,53.2175,337.7994,23.4231,336.6884,7.969e-05,9.8e-06,0.0,0 STARLINK-3687,1 52110U 22029Y   22349.36443687  .00000980  00000-0  79690-4 0  9997,2 52110  53.2175 337.7994 0002696  23.4231 336.6884 15.08841237 42591,6917.877,95.437,541.607,537.877,0.0
52110.0,STARLINK-3687,PAYLOAD,2022-12-15 11:55:33,15.08842262,0.000269,53.2176,337.2052,24.6055,335.5066,5.8065e-05,6.36e-06,0.0,0 STARLINK-3687,1 52110U 22029Y   22349.49691687  .00000636  00000-0  58065-4 0  9997,2 52110  53.2176 337.2052 0002690  24.6055 335.5066 15.08842262 42615,6917.873000000001,95.437,541.599,537.878,0.0
52110.0,STARLINK-3687,PAYLOAD,2022-12-15 16:41:43,15.08841958,0.0002742,53.2178,336.3139,26.4784,333.6348,7.107e-05,8.43e-06,0.0,0 STARLINK-3687,1 52110U 22029Y   22349.69563683  .00000843  00000-0  71070-4 0  9994,2 52110  53.2178 336.3139 0002742  26.4784 333.6348 15.08841958 42646,6917.874,95.437,541.636,537.8430000000002,0.0
52110.0,STARLINK-3687,PAYLOAD,2022-12-16 08:35:34,15.08840765,0.000261,53.2177,333.3393,28.2822,331.8311,6.3475e-05,7.22e-06,0.0,0 STARLINK-3687,1 52110U 22029Y   22350.35803512  .00000722  00000-0  63475-4 0  9993,2 52110  53.2177 333.3393 0002610  28.2822 331.8311 15.08840765 42747,6917.878000000002,95.438,541.549,537.937,0.0
52110.0,STARLINK-3687,PAYLOAD,2022-12-16 16:32:29,15.08843315,0.0002723,53.2177,331.8533,28.3493,331.7647,8.0536e-05,9.94e-06,0.0,0 STARLINK-3687,1 52110U 22029Y   22350.68923240  .00000994  00000-0  80536-4 0  9998,2 52110  53.2177 331.8533 0002723  28.3493 331.7647 15.08843315 42796,6917.87,95.437,541.619,537.852,0.0
52110.0,STARLINK-3687,PAYLOAD,2022-12-17 08:26:21,15.08835512,0.000264,53.2182,328.8792,28.3731,331.7404,-5.1236e-05,-1.104e-05,0.0,0 STARLINK-3687,1 52110U 22029Y   22351.35164061 -.00001104  00000-0 -51236-4 0  9992,2 52110  53.2182 328.8792 0002640  28.3731 331.7404 15.08835512 42890,6917.894,95.438,541.585,537.933,0.0
52110.0,STARLINK-3687,PAYLOAD,2022-12-18 09:52:32,15.08831158,0.0002602,53.2186,324.1212,27.6037,332.5093,-0.00016727,-2.949e-05,0.0,0 STARLINK-3687,1 52110U 22029Y   22352.41148767 -.00002949  00000-0 -16727-3 0  9998,2 52110  53.2186 324.1212 0002602  27.6037 332.5093 15.08831158 43053,6917.906999999997,95.438,541.572,537.972,0.0
52110.0,STARLINK-3687,PAYLOAD,2022-12-19 00:11:00,15.08832107,0.0002615,53.2185,321.4452,27.1594,332.9534,2.2261e-05,6.6e-07,0.0,0 STARLINK-3687,1 52110U 22029Y   22353.00764432  .00000066  00000-0  22261-4 0  9994,2 52110  53.2185 321.4452 0002615  27.1594 332.9534 15.08832107 43144,6917.905,95.438,541.5790000000002,537.96,0.0
52110.0,STARLINK-3687,PAYLOAD,2022-12-19 08:07:55,15.0883608,0.0002617,53.2185,319.9595,26.9281,333.1847,9.056e-05,1.153e-05,0.0,0 STARLINK-3687,1 52110U 22029Y   22353.33884167  .00001153  00000-0  90560-4 0  9993,2 52110  53.2185 319.9595 0002617  26.9281 333.1847 15.08836080 43195,6917.892,95.438,541.568,537.947,0.0
52110.0,STARLINK-3687,PAYLOAD,2022-12-19 20:51:00,15.08842026,0.0002553,53.2198,317.5818,30.0942,330.0197,0.00013991,1.939e-05,0.0,0 STARLINK-3687,1 52110U 22029Y   22353.86875685  .00001939  00000-0  13991-3 0  9990,2 52110  53.2198 317.5818 0002553  30.0942 330.0197 15.08842026 43270,6917.874,95.437,541.505,537.9730000000002,0.0
52110.0,STARLINK-3687,PAYLOAD,2022-12-20 00:01:46,15.08845228,0.0002553,53.2201,316.9871,31.1963,328.918,0.00014091,1.955e-05,0.0,0 STARLINK-3687,1 52110U 22029Y   22354.00123506  .00001955  00000-0  14091-3 0  9995,2 52110  53.2201 316.9871 0002553  31.1963 328.9180 15.08845228 43299,6917.864000000001,95.437,541.496,537.9630000000002,0.0
52110.0,STARLINK-3687,PAYLOAD,2022-12-20 07:58:42,15.08846415,0.0002467,53.2187,315.4988,30.6201,329.4935,0.00017347,2.474e-05,0.0,0 STARLINK-3687,1 52110U 22029Y   22354.33243279  .00002474  00000-0  17347-3 0  9995,2 52110  53.2187 315.4988 0002467  30.6201 329.4935 15.08846415 43347,6917.861,95.437,541.432,538.019,0.0
52110.0,STARLINK-3687,PAYLOAD,2022-12-21 01:27:58,15.08831396,0.0002402,53.2185,312.2267,21.014,339.0951,-6.8642e-05,-1.3800000000000008e-05,0.0,0 STARLINK-3687,1 52110U 22029Y   22355.06108870 -.00001380  00000-0 -68642-4 0  9995,2 52110  53.2185 312.2267 0002402  21.0140 339.0951 15.08831396 43454,6917.906999999997,95.438,541.433,538.11,0.0
52110.0,STARLINK-3687,PAYLOAD,2022-12-21 06:14:07,15.0883103,0.0002478,53.2176,311.334,23.1951,336.9153,-7.0158e-05,-1.405e-05,0.0,0 STARLINK-3687,1 52110U 22029Y   22355.25981000 -.00001405  00000-0 -70158-4 0  9993,2 52110  53.2176 311.3340 0002478  23.1951 336.9153 15.08831030 43480,6917.908,95.438,541.487,538.059,0.0
52110.0,STARLINK-3687,PAYLOAD,2022-12-22 06:04:55,15.08833126,0.000274,53.2186,306.8754,29.3936,330.721,-0.00014112,-2.533e-05,0.0,0 STARLINK-3687,1 52110U 22029Y   22356.25341781 -.00002533  00000-0 -14112-3 0  9990,2 52110  53.2186 306.8754 0002740  29.3936 330.7210 15.08833126 43633,6917.901,95.438,541.6619999999998,537.871,0.0
52110.0,STARLINK-3687,PAYLOAD,2022-12-22 14:01:50,15.08839915,0.0002552,53.2183,305.3877,30.0092,330.1046,-1.635e-05,-5.49e-06,0.0,0 STARLINK-3687,1 52110U 22029Y   22356.58460949 -.00000549  00000-0 -16350-4 0  9996,2 52110  53.2183 305.3877 0002552  30.0092 330.1046 15.08839915 43681,6917.880999999999,95.438,541.511,537.98,0.0
52110.0,STARLINK-3687,PAYLOAD,2022-12-23 02:44:55,15.08830379,0.0002378,53.2184,303.0079,26.5641,333.5473,0.00011084,1.476e-05,0.0,0 STARLINK-3687,1 52110U 22029Y   22357.11453411  .00001476  00000-0  11084-3 0  9998,2 52110  53.2184 303.0079 0002378  26.5641 333.5473 15.08830379 43762,6917.91,95.438,541.42,538.13,0.0
52110.0,STARLINK-3687,PAYLOAD,2022-12-23 04:20:19,15.08824027,0.0002712,53.2183,302.7128,29.1749,330.9395,0.00019663,2.841e-05,0.0,0 STARLINK-3687,1 52110U 22029Y   22357.18077650  .00002841  00000-0  19663-3 0  9990,2 52110  53.2183 302.7128 0002712  29.1749 330.9395 15.08824027 43770,6917.929,95.439,541.67,537.918,0.0
52110.0,STARLINK-3687,PAYLOAD,2022-12-23 20:14:10,15.08832258,0.0002594,53.2182,299.7381,32.1694,327.9456,0.0001978,2.860000000000001e-05,0.0,0 STARLINK-3687,1 52110U 22029Y   22357.84317585  .00002860  00000-0  19780-3 0  9998,2 52110  53.2182 299.7381 0002594  32.1694 327.9456 15.08832258 43876,6917.904,95.438,541.564,537.975,0.0
52110.0,STARLINK-3687,PAYLOAD,2022-12-24 02:35:42,15.08838252,0.0002615,53.2179,298.5486,32.3745,327.7407,0.00020776,3.02e-05,0.0,0 STARLINK-3687,1 52110U 22029Y   22358.10813332  .00003020  00000-0  20776-3 0  9995,2 52110  53.2179 298.5486 0002615  32.3745 327.7407 15.08838252 43917,6917.886,95.438,541.56,537.942,0.0
52110.0,STARLINK-3687,PAYLOAD,2022-12-24 13:43:24,15.08845602,0.0002576,53.2178,296.4668,33.6381,326.4774,0.00012239,1.66e-05,0.0,0 STARLINK-3687,1 52110U 22029Y   22358.57181024  .00001660  00000-0  12239-3 0  9995,2 52110  53.2178 296.4668 0002576  33.6381 326.4774 15.08845602 43988,6917.863,95.437,541.51,537.946,0.0
52110.0,STARLINK-3687,PAYLOAD,2022-12-25 05:37:15,15.0884769,0.0002453,53.2193,293.4937,32.5361,327.5782,-5.6261e-05,-1.184e-05,0.0,0 STARLINK-3687,1 52110U 22029Y   22359.23421277 -.00001184  00000-0 -56261-4 0  9993,2 52110  53.2193 293.4937 0002453  32.5361 327.5782 15.08847690 44083,6917.857,95.437,541.419,538.025,0.0
52110.0,STARLINK-3687,PAYLOAD,2022-12-26 05:28:03,15.08848234,0.0002354,53.2203,289.0313,44.6703,315.4478,-0.00015006,-2.676e-05,0.0,0 STARLINK-3687,1 52110U 22029Y   22360.22781535 -.00002676  00000-0 -15006-3 0  9998,2 52110  53.2203 289.0313 0002354  44.6703 315.4478 15.08848234 44238,6917.855,95.437,541.349,538.092,0.0
